start=new Date('2022-12-01T00:00:00.000Z').valueOf();
sats=[{"MEAN_MOTION":"15.08830971","PERIAPSIS":"537.517","RCS_SIZE":"LARGE","FILE":"3676429","TLE_LINE1":"1 50848U 22001AX  22334.75298834 -.00000736  00000-0 -28134-4 0  9990","GP_ID":"219217425","TLE_LINE2":"2 50848  53.2148 143.4062 0003261  46.5597 313.5666 15.08830971 49878","ARG_OF_PERICENTER":"46.5597","MEAN_MOTION_DOT":"-0.00000736","BSTAR":"-0.00002813400000","EPHEMERIS_TYPE":"0","MEAN_ELEMENT_THEORY":"SGP4","LAUNCH_DATE":"2022-01-06","DECAY_DATE":null,"SITE":"AFETR","ECCENTRICITY":"0.00032610","INCLINATION":"53.2148","COUNTRY_CODE":"US","OBJECT_ID":"2022-001AX","OBJECT_NAME":"STARLINK-3315","MEAN_ANOMALY":"313.5666","TIME_SYSTEM":"UTC","RA_OF_ASC_NODE":"143.4062","CENTER_NAME":"EARTH","REV_AT_EPOCH":"4987","PERIOD":"95.438","EPOCH":"2022-11-30T18:04:18.192576","APOAPSIS":"542.029","MEAN_MOTION_DDOT":"0.0000000000000","SEMIMAJOR_AXIS":"6917.908","OBJECT_TYPE":"PAYLOAD","REF_FRAME":"TEME","NORAD_CAT_ID":"50848","ELEMENT_SET_NO":"999","CLASSIFICATION_TYPE":"U"},{"TLE_LINE2":"2 50849  53.2164 143.3640 0002633  48.0358 312.0858 15.08839109 49871","MEAN_MOTION_DOT":"0.00000568","ARG_OF_PERICENTER":"48.0358","BSTAR":"0.00005378000000","EPHEMERIS_TYPE":"0","MEAN_ELEMENT_THEORY":"SGP4","LAUNCH_DATE":"2022-01-06","DECAY_DATE":null,"SITE":"AFETR","ECCENTRICITY":"0.00026330","MEAN_MOTION":"15.08839109","PERIAPSIS":"537.927","RCS_SIZE":"LARGE","FILE":"3676429","TLE_LINE1":"1 50849U 22001AY  22334.76402707  .00000568  00000-0  53780-4 0  9994","GP_ID":"219217664","EPOCH":"2022-11-30T18:20:11.938848","APOAPSIS":"541.570","SEMIMAJOR_AXIS":"6917.883","MEAN_MOTION_DDOT":"0.0000000000000","OBJECT_TYPE":"PAYLOAD","REF_FRAME":"TEME","ELEMENT_SET_NO":"999","NORAD_CAT_ID":"50849","CLASSIFICATION_TYPE":"U","INCLINATION":"53.2164","COUNTRY_CODE":"US","OBJECT_ID":"2022-001AY","OBJECT_NAME":"STARLINK-3311","MEAN_ANOMALY":"312.0858","TIME_SYSTEM":"UTC","RA_OF_ASC_NODE":"143.3640","CENTER_NAME":"EARTH","PERIOD":"95.438","REV_AT_EPOCH":"4987"},{"MEAN_MOTION":"15.08837551","PERIAPSIS":"538.150","FILE":"3676429","RCS_SIZE":"LARGE","GP_ID":"219216424","TLE_LINE1":"1 50850U 22001AZ  22334.63522228 -.00000392  00000-0 -65070-5 0  9996","BSTAR":"-0.00000650700000","MEAN_MOTION_DOT":"-0.00000392","ARG_OF_PERICENTER":"55.7441","TLE_LINE2":"2 50850  53.2191 103.9299 0002317  55.7441 304.3771 15.08837551 50950","MEAN_ELEMENT_THEORY":"SGP4","EPHEMERIS_TYPE":"0","DECAY_DATE":null,"LAUNCH_DATE":"2022-01-06","ECCENTRICITY":"0.00023170","SITE":"AFETR","OBJECT_ID":"2022-001AZ","COUNTRY_CODE":"US","INCLINATION":"53.2191","OBJECT_NAME":"STARLINK-3312","MEAN_ANOMALY":"304.3771","PERIOD":"95.438","REV_AT_EPOCH":"5095","TIME_SYSTEM":"UTC","RA_OF_ASC_NODE":"103.9299","CENTER_NAME":"EARTH","EPOCH":"2022-11-30T15:14:43.204992","SEMIMAJOR_AXIS":"6917.888","MEAN_MOTION_DDOT":"0.0000000000000","APOAPSIS":"541.356","ELEMENT_SET_NO":"999","NORAD_CAT_ID":"50850","OBJECT_TYPE":"PAYLOAD","REF_FRAME":"TEME","CLASSIFICATION_TYPE":"U"},{"PERIAPSIS":"537.676","MEAN_MOTION":"15.08842520","TLE_LINE1":"1 50851U 22001BA  22334.74930439  .00000811  00000-0  69089-4 0  9993","GP_ID":"219216174","FILE":"3676429","RCS_SIZE":"LARGE","EPHEMERIS_TYPE":"0","MEAN_ELEMENT_THEORY":"SGP4","TLE_LINE2":"2 50851  53.2162 143.4302 0002980  49.2016 310.9234 15.08842520 49873","ARG_OF_PERICENTER":"49.2016","MEAN_MOTION_DOT":"0.00000811","BSTAR":"0.00006908900000","SITE":"AFETR","ECCENTRICITY":"0.00029800","LAUNCH_DATE":"2022-01-06","DECAY_DATE":null,"OBJECT_NAME":"STARLINK-3314","INCLINATION":"53.2162","OBJECT_ID":"2022-001BA","COUNTRY_CODE":"US","RA_OF_ASC_NODE":"143.4302","CENTER_NAME":"EARTH","TIME_SYSTEM":"UTC","REV_AT_EPOCH":"4987","PERIOD":"95.437","MEAN_ANOMALY":"310.9234","APOAPSIS":"541.799","MEAN_MOTION_DDOT":"0.0000000000000","SEMIMAJOR_AXIS":"6917.873","EPOCH":"2022-11-30T17:58:59.899296","CLASSIFICATION_TYPE":"U","REF_FRAME":"TEME","OBJECT_TYPE":"PAYLOAD","NORAD_CAT_ID":"50851","ELEMENT_SET_NO":"999"},{"APOAPSIS":"541.588","MEAN_MOTION_DDOT":"0.0000000000000","SEMIMAJOR_AXIS":"6917.909","EPOCH":"2022-11-30T02:32:58.026624","CLASSIFICATION_TYPE":"U","REF_FRAME":"TEME","OBJECT_TYPE":"PAYLOAD","ELEMENT_SET_NO":"999","NORAD_CAT_ID":"51104","OBJECT_NAME":"STARLINK-3366","COUNTRY_CODE":"US","OBJECT_ID":"2022-005A","INCLINATION":"53.2184","PERIOD":"95.438","REV_AT_EPOCH":"4838","RA_OF_ASC_NODE":"256.3071","CENTER_NAME":"EARTH","TIME_SYSTEM":"UTC","MEAN_ANOMALY":"324.5523","EPHEMERIS_TYPE":"0","MEAN_ELEMENT_THEORY":"SGP4","TLE_LINE2":"2 51104  53.2184 256.3071 0002621  35.5644 324.5523 15.08830507 48382","ARG_OF_PERICENTER":"35.5644","MEAN_MOTION_DOT":"0.00000994","BSTAR":"0.00008061300000","SITE":"AFETR","ECCENTRICITY":"0.00026210","LAUNCH_DATE":"2022-01-19","DECAY_DATE":null,"PERIAPSIS":"537.961","MEAN_MOTION":"15.08830507","GP_ID":"219175637","TLE_LINE1":"1 51104U 22005A   22334.10622716  .00000994  00000-0  80613-4 0  9993","RCS_SIZE":"LARGE","FILE":"3675646"},{"TLE_LINE2":"2 51105  53.2172 253.1618 0002158  34.9622 325.1512 15.08827845 48494","ARG_OF_PERICENTER":"34.9622","MEAN_MOTION_DOT":"0.00000668","BSTAR":"0.00006006900000","EPHEMERIS_TYPE":"0","MEAN_ELEMENT_THEORY":"SGP4","LAUNCH_DATE":"2022-01-19","DECAY_DATE":null,"SITE":"AFETR","ECCENTRICITY":"0.00021580","MEAN_MOTION":"15.08827845","PERIAPSIS":"538.290","RCS_SIZE":"LARGE","FILE":"3676429","GP_ID":"219216692","TLE_LINE1":"1 51105U 22005B   22334.80910840  .00000668  00000-0  60069-4 0  9990","EPOCH":"2022-11-30T19:25:06.965760","APOAPSIS":"541.275","SEMIMAJOR_AXIS":"6917.918","MEAN_MOTION_DDOT":"0.0000000000000","REF_FRAME":"TEME","OBJECT_TYPE":"PAYLOAD","NORAD_CAT_ID":"51105","ELEMENT_SET_NO":"999","CLASSIFICATION_TYPE":"U","OBJECT_ID":"2022-005B","COUNTRY_CODE":"US","INCLINATION":"53.2172","OBJECT_NAME":"STARLINK-3350","MEAN_ANOMALY":"325.1512","PERIOD":"95.438","REV_AT_EPOCH":"4849","RA_OF_ASC_NODE":"253.1618","TIME_SYSTEM":"UTC","CENTER_NAME":"EARTH"},{"EPOCH":"2022-11-30T12:31:46.492032","SEMIMAJOR_AXIS":"6917.857","MEAN_MOTION_DDOT":"0.0000000000000","APOAPSIS":"542.059","NORAD_CAT_ID":"51106","ELEMENT_SET_NO":"999","REF_FRAME":"TEME","OBJECT_TYPE":"PAYLOAD","CLASSIFICATION_TYPE":"U","OBJECT_ID":"2022-005C","COUNTRY_CODE":"US","INCLINATION":"53.2184","OBJECT_NAME":"STARLINK-3176","MEAN_ANOMALY":"324.2632","PERIOD":"95.437","REV_AT_EPOCH":"4955","CENTER_NAME":"EARTH","RA_OF_ASC_NODE":"254.4236","TIME_SYSTEM":"UTC","MEAN_MOTION_DOT":"0.00000524","ARG_OF_PERICENTER":"35.8587","BSTAR":"0.00005107900000","TLE_LINE2":"2 51106  53.2184 254.4236 0003379  35.8587 324.2632 15.08847682 49556","MEAN_ELEMENT_THEORY":"SGP4","EPHEMERIS_TYPE":"0","DECAY_DATE":null,"LAUNCH_DATE":"2022-01-19","ECCENTRICITY":"0.00033790","SITE":"AFETR","MEAN_MOTION":"15.08847682","PERIAPSIS":"537.384","FILE":"3676290","RCS_SIZE":"LARGE","GP_ID":"219190338","TLE_LINE1":"1 51106U 22005C   22334.52206588  .00000524  00000-0  51079-4 0  9999"},{"EPOCH":"2022-11-30T18:53:22.123968","MEAN_MOTION_DDOT":"0.0000000000000","SEMIMAJOR_AXIS":"6917.878","APOAPSIS":"541.705","ELEMENT_SET_NO":"999","NORAD_CAT_ID":"51107","OBJECT_TYPE":"PAYLOAD","REF_FRAME":"TEME","CLASSIFICATION_TYPE":"U","OBJECT_ID":"2022-005D","COUNTRY_CODE":"US","INCLINATION":"53.2156","OBJECT_NAME":"STARLINK-3368","MEAN_ANOMALY":"331.2703","REV_AT_EPOCH":"4835","PERIOD":"95.438","RA_OF_ASC_NODE":"263.2568","TIME_SYSTEM":"UTC","CENTER_NAME":"EARTH","ARG_OF_PERICENTER":"28.8445","MEAN_MOTION_DOT":"0.00001422","BSTAR":"0.00010747000000","TLE_LINE2":"2 51107  53.2156 263.2568 0002837  28.8445 331.2703 15.08840831 48358","MEAN_ELEMENT_THEORY":"SGP4","EPHEMERIS_TYPE":"0","DECAY_DATE":null,"LAUNCH_DATE":"2022-01-19","ECCENTRICITY":"0.00028370","SITE":"AFETR","MEAN_MOTION":"15.08840831","PERIAPSIS":"537.780","RCS_SIZE":"LARGE","FILE":"3676429","GP_ID":"219217683","TLE_LINE1":"1 51107U 22005D   22334.78706162  .00001422  00000-0  10747-3 0  9995"},{"ECCENTRICITY":"0.00030950","SITE":"AFETR","DECAY_DATE":null,"LAUNCH_DATE":"2022-01-19","MEAN_ELEMENT_THEORY":"SGP4","EPHEMERIS_TYPE":"0","MEAN_MOTION_DOT":"-0.00000071","ARG_OF_PERICENTER":"42.7363","BSTAR":"0.00001369500000","TLE_LINE2":"2 51108  53.2172 253.1699 0003095  42.7363 317.3869 15.08844293 48490","GP_ID":"219216443","TLE_LINE1":"1 51108U 22005E   22334.80541887 -.00000071  00000-0  13695-4 0  9996","RCS_SIZE":"LARGE","FILE":"3676429","PERIAPSIS":"537.591","MEAN_MOTION":"15.08844293","CLASSIFICATION_TYPE":"U","NORAD_CAT_ID":"51108","ELEMENT_SET_NO":"999","OBJECT_TYPE":"PAYLOAD","REF_FRAME":"TEME","SEMIMAJOR_AXIS":"6917.867","MEAN_MOTION_DDOT":"0.0000000000000","APOAPSIS":"541.873","EPOCH":"2022-11-30T19:19:48.190368","RA_OF_ASC_NODE":"253.1699","CENTER_NAME":"EARTH","TIME_SYSTEM":"UTC","REV_AT_EPOCH":"4849","PERIOD":"95.437","MEAN_ANOMALY":"317.3869","OBJECT_NAME":"STARLINK-3362","INCLINATION":"53.2172","COUNTRY_CODE":"US","OBJECT_ID":"2022-005E"},{"TLE_LINE2":"2 51109  53.2176 253.3477 0003034  39.2672 320.8540 15.08837185 48259","ARG_OF_PERICENTER":"39.2672","MEAN_MOTION_DOT":"0.00001570","BSTAR":"0.00011674000000","EPHEMERIS_TYPE":"0","MEAN_ELEMENT_THEORY":"SGP4","LAUNCH_DATE":"2022-01-19","DECAY_DATE":null,"SITE":"AFETR","ECCENTRICITY":"0.00030340","MEAN_MOTION":"15.08837185","PERIAPSIS":"537.655","FILE":"3676429","RCS_SIZE":"LARGE","TLE_LINE1":"1 51109U 22005F   22334.76221927  .00001570  00000-0  11674-3 0  9990","GP_ID":"219216193","EPOCH":"2022-11-30T18:17:35.744928","APOAPSIS":"541.853","MEAN_MOTION_DDOT":"0.0000000000000","SEMIMAJOR_AXIS":"6917.889","OBJECT_TYPE":"PAYLOAD","REF_FRAME":"TEME","NORAD_CAT_ID":"51109","ELEMENT_SET_NO":"999","CLASSIFICATION_TYPE":"U","INCLINATION":"53.2176","COUNTRY_CODE":"US","OBJECT_ID":"2022-005F","OBJECT_NAME":"STARLINK-3358","MEAN_ANOMALY":"320.8540","CENTER_NAME":"EARTH","RA_OF_ASC_NODE":"253.3477","TIME_SYSTEM":"UTC","PERIOD":"95.438","REV_AT_EPOCH":"4825"}];
